{"type": "FeatureCollection", "features": [ {"type": "Feature", "properties": {"norad_id": 66869, "name": "STARLINK-36092", "group": "last-30-days", "lat": -23.94092545072111, "lon": 17.54361984126749, "alt_km": 406.8935232376725, "timestamp": "2025-12-25T07:41:08.450176+00:00", "meta": {"OBJECT_NAME": "STARLINK-36092", "OBJECT_ID": "2025-281X", "EPOCH": "2025-12-24T22:00:03.000096", "MEAN_MOTION": 15.55656228, "ECCENTRICITY": 0.00013065, "INCLINATION": 43.0009, "RA_OF_ASC_NODE": 48.3732, "ARG_OF_PERICENTER": 273.238, "MEAN_ANOMALY": 308.9527, "EPHEMERIS_TYPE": 0, "CLASSIFICATION_TYPE": "U", "NORAD_CAT_ID": 66869, "ELEMENT_SET_NO": 999, "REV_AT_EPOCH": 337, "BSTAR": -0.032751865, "MEAN_MOTION_DOT": -0.02059982, "MEAN_MOTION_DDOT": 0}, "tle": {"line1": "1 66869U 25281X   25358.91670139 -.02059982  00000+0 -32752-1 0  9998", "line2": "2 66869  43.0009  48.3732 0001306 273.2380 308.9527 15.55656228  3377"}}, "geometry": {"type": "Point", "coordinates": [17.54361984126749, -23.94092545072111]}}, {"type": "Feature", "properties": {"norad_id": 66870, "name": "STARLINK-36114", "group": "last-30-days", "lat": -22.783009339339433, "lon": 19.203043618195203, "alt_km": 406.91501748591963, "timestamp": "2025-12-25T07:41:08.450189+00:00", "meta": {"OBJECT_NAME": "STARLINK-36114", "OBJECT_ID": "2025-281Y", "EPOCH": "2025-12-24T22:00:03.000096", "MEAN_MOTION": 15.55652262, "ECCENTRICITY": 0.00012148, "INCLINATION": 43.001, "RA_OF_ASC_NODE": 48.3683, "ARG_OF_PERICENTER": 270.7142, "MEAN_ANOMALY": 313.399, "EPHEMERIS_TYPE": 0, "CLASSIFICATION_TYPE": "U", "NORAD_CAT_ID": 66870, "ELEMENT_SET_NO": 999, "REV_AT_EPOCH": 324, "BSTAR": -0.032710641, "MEAN_MOTION_DOT": -0.02057339, "MEAN_MOTION_DDOT": 0}, "tle": {"line1": "1 66870U 25281Y   25358.91670139 -.02057339  00000+0 -32711-1 0  9999", "line2": "2 66870  43.0010  48.3683 0001214 270.7142 313.3990 15.55652262  3246"}}, "geometry": {"type": "Point", "coordinates": [19.203043618195203, -22.783009339339433]}}, {"type": "Feature", "properties": {"norad_id": 66871, "name": "STARLINK-36095", "group": "last-30-days", "lat": -21.60914578187427, "lon": 20.832338023247292, "alt_km": 406.9515371317748, "timestamp": "2025-12-25T07:41:08.450199+00:00", "meta": {"OBJECT_NAME": "STARLINK-36095", "OBJECT_ID": "2025-281Z", "EPOCH": "2025-12-24T22:00:03.000096", "MEAN_MOTION": 15.55651419, "ECCENTRICITY": 0.00010649, "INCLINATION": 43.0007, "RA_OF_ASC_NODE": 48.3633, "ARG_OF_PERICENTER": 267.7317, "MEAN_ANOMALY": 318.299, "EPHEMERIS_TYPE": 0, "CLASSIFICATION_TYPE": "U", "NORAD_CAT_ID": 66871, "ELEMENT_SET_NO": 999, "REV_AT_EPOCH": 337, "BSTAR": -0.032689924, "MEAN_MOTION_DOT": -0.02056027, "MEAN_MOTION_DDOT": 0}, "tle": {"line1": "1 66871U 25281Z   25358.91670139 -.02056027  00000+0 -32690-1 0  9999", "line2": "2 66871  43.0007  48.3633 0001064 267.7317 318.2990 15.55651419  3372"}}, "geometry": {"type": "Point", "coordinates": [20.832338023247292, -21.60914578187427]}}, {"type": "Feature", "properties": {"norad_id": 66872, "name": "STARLINK-36082", "group": "last-30-days", "lat": -20.418576702819273, "lon": 22.436149605448573, "alt_km": 406.7256794952664, "timestamp": "2025-12-25T07:41:08.450213+00:00", "meta": {"OBJECT_NAME": "STARLINK-36082", "OBJECT_ID": "2025-281AA", "EPOCH": "2025-12-24T22:00:03.000096", "MEAN_MOTION": 15.55654361, "ECCENTRICITY": 0.00013039, "INCLINATION": 42.9999, "RA_OF_ASC_NODE": 48.3584, "ARG_OF_PERICENTER": 271.3362, "MEAN_ANOMALY": 316.6084, "EPHEMERIS_TYPE": 0, "CLASSIFICATION_TYPE": "U", "NORAD_CAT_ID": 66872, "ELEMENT_SET_NO": 999, "REV_AT_EPOCH": 324, "BSTAR": -0.032748261, "MEAN_MOTION_DOT": -0.02059652, "MEAN_MOTION_DDOT": 0}, "tle": {"line1": "1 66872U 25281AA  25358.91670139 -.02059652  00000+0 -32748-1 0  9991", "line2": "2 66872  42.9999  48.3584 0001303 271.3362 316.6084 15.55654361  3244"}}, "geometry": {"type": "Point", "coordinates": [22.436149605448573, -20.418576702819273]}}, {"type": "Feature", "properties": {"norad_id": 66873, "name": "STARLINK-36128", "group": "last-30-days", "lat": -16.7659137223759, "lon": 27.104903107948456, "alt_km": 406.53112434516606, "timestamp": "2025-12-25T07:41:08.450223+00:00", "meta": {"OBJECT_NAME": "STARLINK-36128", "OBJECT_ID": "2025-281AB", "EPOCH": "2025-12-24T22:00:03.000096", "MEAN_MOTION": 15.55652359, "ECCENTRICITY": 0.00012261, "INCLINATION": 43.0004, "RA_OF_ASC_NODE": 48.3431, "ARG_OF_PERICENTER": 270.3443, "MEAN_ANOMALY": 323.3538, "EPHEMERIS_TYPE": 0, "CLASSIFICATION_TYPE": "U", "NORAD_CAT_ID": 66873, "ELEMENT_SET_NO": 999, "REV_AT_EPOCH": 338, "BSTAR": -0.032722624, "MEAN_MOTION_DOT": -0.02058026, "MEAN_MOTION_DDOT": 0}, "tle": {"line1": "1 66873U 25281AB  25358.91670139 -.02058026  00000+0 -32723-1 0  9999", "line2": "2 66873  43.0004  48.3431 0001226 270.3443 323.3538 15.55652359  3387"}}, "geometry": {"type": "Point", "coordinates": [27.104903107948456, -16.7659137223759]}}, {"type": "Feature", "properties": {"norad_id": 66874, "name": "STARLINK-36129", "group": "last-30-days", "lat": -19.21416959957704, "lon": 24.015009278789634, "alt_km": 406.68545532287135, "timestamp": "2025-12-25T07:41:08.450233+00:00", "meta": {"OBJECT_NAME": "STARLINK-36129", "OBJECT_ID": "2025-281AC", "EPOCH": "2025-12-24T22:00:03.000096", "MEAN_MOTION": 15.55650201, "ECCENTRICITY": 0.00012163, "INCLINATION": 43.0003, "RA_OF_ASC_NODE": 48.3532, "ARG_OF_PERICENTER": 271.3615, "MEAN_ANOMALY": 318.5049, "EPHEMERIS_TYPE": 0, "CLASSIFICATION_TYPE": "U", "NORAD_CAT_ID": 66874, "ELEMENT_SET_NO": 999, "REV_AT_EPOCH": 338, "BSTAR": -0.032696228, "MEAN_MOTION_DOT": -0.02056391, "MEAN_MOTION_DDOT": 0}, "tle": {"line1": "1 66874U 25281AC  25358.91670139 -.02056391  00000+0 -32696-1 0  9992", "line2": "2 66874  43.0003  48.3532 0001216 271.3615 318.5049 15.55650201  3387"}}, "geometry": {"type": "Point", "coordinates": [24.015009278789634, -19.21416959957704]}}, {"type": "Feature", "properties": {"norad_id": 66875, "name": "STARLINK-36053", "group": "last-30-days", "lat": -15.52464851071965, "lon": 28.618962186848826, "alt_km": 406.3953683792779, "timestamp": "2025-12-25T07:41:08.450245+00:00", "meta": {"OBJECT_NAME": "STARLINK-36053", "OBJECT_ID": "2025-281AD", "EPOCH": "2025-12-24T22:00:03.000096", "MEAN_MOTION": 15.55653893, "ECCENTRICITY": 0.0001264, "INCLINATION": 43.0007, "RA_OF_ASC_NODE": 48.338, "ARG_OF_PERICENTER": 272.0044, "MEAN_ANOMALY": 323.608, "EPHEMERIS_TYPE": 0, "CLASSIFICATION_TYPE": "U", "NORAD_CAT_ID": 66875, "ELEMENT_SET_NO": 999, "REV_AT_EPOCH": 338, "BSTAR": -0.032723653, "MEAN_MOTION_DOT": -0.02058213, "MEAN_MOTION_DDOT": 0}, "tle": {"line1": "1 66875U 25281AD  25358.91670139 -.02058213  00000+0 -32724-1 0  9990", "line2": "2 66875  43.0007  48.3380 0001264 272.0044 323.6080 15.55653893  3382"}}, "geometry": {"type": "Point", "coordinates": [28.618962186848826, -15.52464851071965]}}, {"type": "Feature", "properties": {"norad_id": 66876, "name": "STARLINK-35702", "group": "last-30-days", "lat": -17.996142654123002, "lon": 25.571135062606984, "alt_km": 406.5761339450546, "timestamp": "2025-12-25T07:41:08.450258+00:00", "meta": {"OBJECT_NAME": "STARLINK-35702", "OBJECT_ID": "2025-281AE", "EPOCH": "2025-12-24T22:00:03.000096", "MEAN_MOTION": 15.5565356, "ECCENTRICITY": 0.00013222, "INCLINATION": 43.0001, "RA_OF_ASC_NODE": 48.3487, "ARG_OF_PERICENTER": 270.3004, "MEAN_ANOMALY": 321.4766, "EPHEMERIS_TYPE": 0, "CLASSIFICATION_TYPE": "U", "NORAD_CAT_ID": 66876, "ELEMENT_SET_NO": 999, "REV_AT_EPOCH": 338, "BSTAR": -0.032688445, "MEAN_MOTION_DOT": -0.02056252, "MEAN_MOTION_DDOT": 0}, "tle": {"line1": "1 66876U 25281AE  25358.91670139 -.02056252  00000+0 -32688-1 0  9991", "line2": "2 66876  43.0001  48.3487 0001322 270.3004 321.4766 15.55653560  3385"}}, "geometry": {"type": "Point", "coordinates": [25.571135062606984, -17.996142654123002]}}, {"type": "Feature", "properties": {"norad_id": 66877, "name": "ZQ-3 R/B", "group": "last-30-days", "lat": 47.368103696271206, "lon": 53.58892107505728, "alt_km": 1076.5899932542052, "timestamp": "2025-12-25T07:41:08.450270+00:00", "meta": {"OBJECT_NAME": "ZQ-3 R/B", "OBJECT_ID": "2025-282A", "EPOCH": "2025-12-24T18:27:08.314272", "MEAN_MOTION": 14.84153077, "ECCENTRICITY": 0.06771994, "INCLINATION": 56.9495, "RA_OF_ASC_NODE": 10.7661, "ARG_OF_PERICENTER": 241.2094, "MEAN_ANOMALY": 111.9325, "EPHEMERIS_TYPE": 0, "CLASSIFICATION_TYPE": "U", "NORAD_CAT_ID": 66877, "ELEMENT_SET_NO": 999, "REV_AT_EPOCH": 316, "BSTAR": 0.00017884516, "MEAN_MOTION_DOT": 0.01059217, "MEAN_MOTION_DDOT": 7.915378e-06}, "tle": {"line1": "1 66877U 25282A   25358.76884623  .01059217  79154-5  17885-3 0  9998", "line2": "2 66877  56.9495  10.7661 0677199 241.2094 111.9325 14.84153077  3168"}}, "geometry": {"type": "Point", "coordinates": [53.58892107505728, 47.368103696271206]}}, {"type": "Feature", "properties": {"norad_id": 66878, "name": "STARLINK-35866", "group": "last-30-days", "lat": 50.126233168305724, "lon": 127.28843076320135, "alt_km": 375.65292510665313, "timestamp": "2025-12-25T07:41:08.450283+00:00", "meta": {"OBJECT_NAME": "STARLINK-35866", "OBJECT_ID": "2025-283A", "EPOCH": "2025-12-24T22:00:03.000096", "MEAN_MOTION": 15.63258653, "ECCENTRICITY": 0.00011094, "INCLINATION": 53.1598, "RA_OF_ASC_NODE": 13.0885, "ARG_OF_PERICENTER": 83.0617, "MEAN_ANOMALY": 272.3103, "EPHEMERIS_TYPE": 0, "CLASSIFICATION_TYPE": "U", "NORAD_CAT_ID": 66878, "ELEMENT_SET_NO": 999, "REV_AT_EPOCH": 438, "BSTAR": -0.02385306, "MEAN_MOTION_DOT": -0.01963622, "MEAN_MOTION_DDOT": 0}, "tle": {"line1": "1 66878U 25283A   25358.91670139 -.01963622  00000+0 -23853-1 0  9996", "line2": "2 66878  53.1598  13.0885 0001109  83.0617 272.3103 15.63258653  4386"}}, "geometry": {"type": "Point", "coordinates": [127.28843076320135, 50.126233168305724]}}]}